STARLINK-36800          
1 67797U 26032A   26074.47455324  .00483378  00000+0  30461-2 0  9990
2 67797  97.2826 261.2413 0001784 100.1602 259.9865 15.75308542  5695
STARLINK-36798          
1 67798U 26032B   26074.96653841  .00443964  00000+0  28036-2 0  9991
2 67798  97.2827 261.7969 0002197  45.0798 315.0645 15.75369771  5770
STARLINK-36804          
1 67799U 26032C   26074.98100652  .00160008  00000+0  10522-2 0  9997
2 67799  97.2827 261.7764 0003190  68.0637 292.0967 15.75218428  5778
STARLINK-36354          
1 67800U 26032D   26074.77948266  .00234376  00000+0  15247-2 0  9997
2 67800  97.2830 261.5933 0001929  78.2298 281.9183 15.75261718  5749
STARLINK-36773          
1 67801U 26032E   26074.97782649  .00260306  00000+0  16879-2 0  9995
2 67801  97.2832 261.7808 0001805  55.9637 304.1799 15.75265044  5777
STARLINK-36739          
1 67802U 26032F   26074.95947131  .00301339  00000+0  19415-2 0  9994
2 67802  97.2833 261.8064 0000130  29.3824 330.7449 15.75298087  5777
STARLINK-36768          
1 67803U 26032G   26074.97182583  .00246309  00000+0  15999-2 0  9997
2 67803  97.2829 261.7886 0000989  50.8547 309.2806 15.75265054  5773
STARLINK-36792          
1 67804U 26032H   26074.97429325  .00264386  00000+0  17128-2 0  9997
2 67804  97.2830 261.7851 0000550  20.1622 339.9664 15.75274567  5777
STARLINK-36782          
1 67805U 26032J   26074.75901254  .00279576  00000+0  18061-2 0  9994
2 67805  97.2839 261.6188 0002540 101.4777 258.6774 15.75296999  5743
STARLINK-36389          
1 67806U 26032K   26074.77242535  .00215916  00000+0  14077-2 0  9998
2 67806  97.2826 261.5992 0002366  78.2395 281.9135 15.75262020  5743
STARLINK-36382          
1 67807U 26032L   26074.96088325  .00185035  00000+0  12106-2 0  9994
2 67807  97.2828 261.8014 0000884  45.6221 314.5116 15.75269162  5772
STARLINK-36811          
1 67808U 26032M   26074.76042400  .00290525  00000+0  18740-2 0  9998
2 67808  97.2839 261.6167 0002398 102.2951 257.8583 15.75302035  5745
