CCSDS_OMM_VERS = 2.0
CREATION_DATE  = 
ORIGINATOR     = 

OBJECT_NAME    = STARLINK-36800
OBJECT_ID      = 2026-032A
CENTER_NAME    = EARTH
REF_FRAME      = TEME
TIME_SYSTEM    = UTC
MEAN_ELEMENT_THEORY = SGP/SGP4

EPOCH          = 2026-03-15T11:23:21.399936
MEAN_MOTION    = 15.75308542
ECCENTRICITY   = .00017843
INCLINATION    = 97.2826
RA_OF_ASC_NODE = 261.2413
ARG_OF_PERICENTER = 100.1602
MEAN_ANOMALY   = 259.9865

EPHEMERIS_TYPE = 0
CLASSIFICATION_TYPE = U
NORAD_CAT_ID   = 67797
ELEMENT_SET_NO = 999
REV_AT_EPOCH   = 569
BSTAR          = .30461286E-2
MEAN_MOTION_DOT = .483378E-2
MEAN_MOTION_DDOT = 0

CCSDS_OMM_VERS = 2.0
CREATION_DATE  = 
ORIGINATOR     = 

OBJECT_NAME    = STARLINK-36798
OBJECT_ID      = 2026-032B
CENTER_NAME    = EARTH
REF_FRAME      = TEME
TIME_SYSTEM    = UTC
MEAN_ELEMENT_THEORY = SGP/SGP4

EPOCH          = 2026-03-15T23:11:48.918624
MEAN_MOTION    = 15.75369771
ECCENTRICITY   = .00021979
INCLINATION    = 97.2827
RA_OF_ASC_NODE = 261.7969
ARG_OF_PERICENTER = 45.0798
MEAN_ANOMALY   = 315.0645

EPHEMERIS_TYPE = 0
CLASSIFICATION_TYPE = U
NORAD_CAT_ID   = 67798
ELEMENT_SET_NO = 999
REV_AT_EPOCH   = 577
BSTAR          = .28035884E-2
MEAN_MOTION_DOT = .443964E-2
MEAN_MOTION_DDOT = 0

CCSDS_OMM_VERS = 2.0
CREATION_DATE  = 
ORIGINATOR     = 

OBJECT_NAME    = STARLINK-36804
OBJECT_ID      = 2026-032C
CENTER_NAME    = EARTH
REF_FRAME      = TEME
TIME_SYSTEM    = UTC
MEAN_ELEMENT_THEORY = SGP/SGP4

EPOCH          = 2026-03-15T23:32:38.963328
MEAN_MOTION    = 15.75218428
ECCENTRICITY   = .00031908
INCLINATION    = 97.2827
RA_OF_ASC_NODE = 261.7764
ARG_OF_PERICENTER = 68.0637
MEAN_ANOMALY   = 292.0967

EPHEMERIS_TYPE = 0
CLASSIFICATION_TYPE = U
NORAD_CAT_ID   = 67799
ELEMENT_SET_NO = 999
REV_AT_EPOCH   = 577
BSTAR          = .10521938E-2
MEAN_MOTION_DOT = .160008E-2
MEAN_MOTION_DDOT = 0

CCSDS_OMM_VERS = 2.0
CREATION_DATE  = 
ORIGINATOR     = 

OBJECT_NAME    = STARLINK-36354
OBJECT_ID      = 2026-032D
CENTER_NAME    = EARTH
REF_FRAME      = TEME
TIME_SYSTEM    = UTC
MEAN_ELEMENT_THEORY = SGP/SGP4

EPOCH          = 2026-03-15T18:42:27.301824
MEAN_MOTION    = 15.75261718
ECCENTRICITY   = .00019292
INCLINATION    = 97.2830
RA_OF_ASC_NODE = 261.5933
ARG_OF_PERICENTER = 78.2298
MEAN_ANOMALY   = 281.9183

EPHEMERIS_TYPE = 0
CLASSIFICATION_TYPE = U
NORAD_CAT_ID   = 67800
ELEMENT_SET_NO = 999
REV_AT_EPOCH   = 574
BSTAR          = .15247431E-2
MEAN_MOTION_DOT = .234376E-2
MEAN_MOTION_DDOT = 0

CCSDS_OMM_VERS = 2.0
CREATION_DATE  = 
ORIGINATOR     = 

OBJECT_NAME    = STARLINK-36773
OBJECT_ID      = 2026-032E
CENTER_NAME    = EARTH
REF_FRAME      = TEME
TIME_SYSTEM    = UTC
MEAN_ELEMENT_THEORY = SGP/SGP4

EPOCH          = 2026-03-15T23:28:04.208736
MEAN_MOTION    = 15.75265044
ECCENTRICITY   = .00018058
INCLINATION    = 97.2832
RA_OF_ASC_NODE = 261.7808
ARG_OF_PERICENTER = 55.9637
MEAN_ANOMALY   = 304.1799

EPHEMERIS_TYPE = 0
CLASSIFICATION_TYPE = U
NORAD_CAT_ID   = 67801
ELEMENT_SET_NO = 999
REV_AT_EPOCH   = 577
BSTAR          = .1687923E-2
MEAN_MOTION_DOT = .260306E-2
MEAN_MOTION_DDOT = 0

CCSDS_OMM_VERS = 2.0
CREATION_DATE  = 
ORIGINATOR     = 

OBJECT_NAME    = STARLINK-36739
OBJECT_ID      = 2026-032F
CENTER_NAME    = EARTH
REF_FRAME      = TEME
TIME_SYSTEM    = UTC
MEAN_ELEMENT_THEORY = SGP/SGP4

EPOCH          = 2026-03-15T23:01:38.321184
MEAN_MOTION    = 15.75298087
ECCENTRICITY   = .00001302
INCLINATION    = 97.2833
RA_OF_ASC_NODE = 261.8064
ARG_OF_PERICENTER = 29.3824
MEAN_ANOMALY   = 330.7449

EPHEMERIS_TYPE = 0
CLASSIFICATION_TYPE = U
NORAD_CAT_ID   = 67802
ELEMENT_SET_NO = 999
REV_AT_EPOCH   = 577
BSTAR          = .19414824E-2
MEAN_MOTION_DOT = .301339E-2
MEAN_MOTION_DDOT = 0

CCSDS_OMM_VERS = 2.0
CREATION_DATE  = 
ORIGINATOR     = 

OBJECT_NAME    = STARLINK-36768
OBJECT_ID      = 2026-032G
CENTER_NAME    = EARTH
REF_FRAME      = TEME
TIME_SYSTEM    = UTC
MEAN_ELEMENT_THEORY = SGP/SGP4

EPOCH          = 2026-03-15T23:19:25.751712
MEAN_MOTION    = 15.75265054
ECCENTRICITY   = .00009892
INCLINATION    = 97.2829
RA_OF_ASC_NODE = 261.7886
ARG_OF_PERICENTER = 50.8547
MEAN_ANOMALY   = 309.2806

EPHEMERIS_TYPE = 0
CLASSIFICATION_TYPE = U
NORAD_CAT_ID   = 67803
ELEMENT_SET_NO = 999
REV_AT_EPOCH   = 577
BSTAR          = .15998517E-2
MEAN_MOTION_DOT = .246309E-2
MEAN_MOTION_DDOT = 0

CCSDS_OMM_VERS = 2.0
CREATION_DATE  = 
ORIGINATOR     = 

OBJECT_NAME    = STARLINK-36792
OBJECT_ID      = 2026-032H
CENTER_NAME    = EARTH
REF_FRAME      = TEME
TIME_SYSTEM    = UTC
MEAN_ELEMENT_THEORY = SGP/SGP4

EPOCH          = 2026-03-15T23:22:58.936800
MEAN_MOTION    = 15.75274567
ECCENTRICITY   = .00005507
INCLINATION    = 97.2830
RA_OF_ASC_NODE = 261.7851
ARG_OF_PERICENTER = 20.1622
MEAN_ANOMALY   = 339.9664

EPHEMERIS_TYPE = 0
CLASSIFICATION_TYPE = U
NORAD_CAT_ID   = 67804
ELEMENT_SET_NO = 999
REV_AT_EPOCH   = 577
BSTAR          = .17127946E-2
MEAN_MOTION_DOT = .264386E-2
MEAN_MOTION_DDOT = 0

CCSDS_OMM_VERS = 2.0
CREATION_DATE  = 
ORIGINATOR     = 

OBJECT_NAME    = STARLINK-36782
OBJECT_ID      = 2026-032J
CENTER_NAME    = EARTH
REF_FRAME      = TEME
TIME_SYSTEM    = UTC
MEAN_ELEMENT_THEORY = SGP/SGP4

EPOCH          = 2026-03-15T18:12:58.683456
MEAN_MOTION    = 15.75296999
ECCENTRICITY   = .00025403
INCLINATION    = 97.2839
RA_OF_ASC_NODE = 261.6188
ARG_OF_PERICENTER = 101.4777
MEAN_ANOMALY   = 258.6774

EPHEMERIS_TYPE = 0
CLASSIFICATION_TYPE = U
NORAD_CAT_ID   = 67805
ELEMENT_SET_NO = 999
REV_AT_EPOCH   = 574
BSTAR          = .18061441E-2
MEAN_MOTION_DOT = .279576E-2
MEAN_MOTION_DDOT = 0

CCSDS_OMM_VERS = 2.0
CREATION_DATE  = 
ORIGINATOR     = 

OBJECT_NAME    = STARLINK-36389
OBJECT_ID      = 2026-032K
CENTER_NAME    = EARTH
REF_FRAME      = TEME
TIME_SYSTEM    = UTC
MEAN_ELEMENT_THEORY = SGP/SGP4

EPOCH          = 2026-03-15T18:32:17.550240
MEAN_MOTION    = 15.75262020
ECCENTRICITY   = .00023661
INCLINATION    = 97.2826
RA_OF_ASC_NODE = 261.5992
ARG_OF_PERICENTER = 78.2395
MEAN_ANOMALY   = 281.9135

EPHEMERIS_TYPE = 0
CLASSIFICATION_TYPE = U
NORAD_CAT_ID   = 67806
ELEMENT_SET_NO = 999
REV_AT_EPOCH   = 574
BSTAR          = .14077179E-2
MEAN_MOTION_DOT = .215916E-2
MEAN_MOTION_DDOT = 0

CCSDS_OMM_VERS = 2.0
CREATION_DATE  = 
ORIGINATOR     = 

OBJECT_NAME    = STARLINK-36382
OBJECT_ID      = 2026-032L
CENTER_NAME    = EARTH
REF_FRAME      = TEME
TIME_SYSTEM    = UTC
MEAN_ELEMENT_THEORY = SGP/SGP4

EPOCH          = 2026-03-15T23:03:40.312800
MEAN_MOTION    = 15.75269162
ECCENTRICITY   = .00008844
INCLINATION    = 97.2828
RA_OF_ASC_NODE = 261.8014
ARG_OF_PERICENTER = 45.6221
MEAN_ANOMALY   = 314.5116

EPHEMERIS_TYPE = 0
CLASSIFICATION_TYPE = U
NORAD_CAT_ID   = 67807
ELEMENT_SET_NO = 999
REV_AT_EPOCH   = 577
BSTAR          = .12105892E-2
MEAN_MOTION_DOT = .185035E-2
MEAN_MOTION_DDOT = 0

CCSDS_OMM_VERS = 2.0
CREATION_DATE  = 
ORIGINATOR     = 

OBJECT_NAME    = STARLINK-36811
OBJECT_ID      = 2026-032M
CENTER_NAME    = EARTH
REF_FRAME      = TEME
TIME_SYSTEM    = UTC
MEAN_ELEMENT_THEORY = SGP/SGP4

EPOCH          = 2026-03-15T18:15:00.633600
MEAN_MOTION    = 15.75302035
ECCENTRICITY   = .00023984
INCLINATION    = 97.2839
RA_OF_ASC_NODE = 261.6167
ARG_OF_PERICENTER = 102.2951
MEAN_ANOMALY   = 257.8583

EPHEMERIS_TYPE = 0
CLASSIFICATION_TYPE = U
NORAD_CAT_ID   = 67808
ELEMENT_SET_NO = 999
REV_AT_EPOCH   = 574
BSTAR          = .18740319E-2
MEAN_MOTION_DOT = .290525E-2
MEAN_MOTION_DDOT = 0

